[{"OBJECT_NAME":"ONEWEB-0371","OBJECT_ID":"2021-090U","EPOCH":"2026-06-12T02:38:35.612160","MEAN_MOTION":13.19724342,"ECCENTRICITY":0.0001815,"INCLINATION":87.9171,"RA_OF_ASC_NODE":305.9778,"ARG_OF_PERICENTER":101.3137,"MEAN_ANOMALY":258.82,"EPHEMERIS_TYPE":0,"CLASSIFICATION_TYPE":"U","NORAD_CAT_ID":49297,"ELEMENT_SET_NO":999,"REV_AT_EPOCH":22578,"BSTAR":3.4081e-05,"MEAN_MOTION_DOT":2.7e-07,"MEAN_MOTION_DDOT":0.0},{"OBJECT_NAME":"ONEWEB-0372","OBJECT_ID":"2021-090V","EPOCH":"2026-06-12T07:31:47.177472","MEAN_MOTION":13.20771659,"ECCENTRICITY":0.0001937,"INCLINATION":87.9191,"RA_OF_ASC_NODE":275.4129,"ARG_OF_PERICENTER":101.6411,"MEAN_ANOMALY":258.494,"EPHEMERIS_TYPE":0,"CLASSIFICATION_TYPE":"U","NORAD_CAT_ID":49298,"ELEMENT_SET_NO":999,"REV_AT_EPOCH":22919,"BSTAR":0.00012128,"MEAN_MOTION_DOT":6.2e-07,"MEAN_MOTION_DDOT":0.0},{"OBJECT_NAME":"ONEWEB-0373","OBJECT_ID":"2021-090W","EPOCH":"2026-06-12T06:19:16.223808","MEAN_MOTION":13.20771239,"ECCENTRICITY":0.0002063,"INCLINATION":87.919,"RA_OF_ASC_NODE":275.4235,"ARG_OF_PERICENTER":100.8809,"MEAN_ANOMALY":259.2556,"EPHEMERIS_TYPE":0,"CLASSIFICATION_TYPE":"U","NORAD_CAT_ID":49299,"ELEMENT_SET_NO":999,"REV_AT_EPOCH":23037,"BSTAR":0.0001674,"MEAN_MOTION_DOT":8.1e-07,"MEAN_MOTION_DDOT":0.0},{"OBJECT_NAME":"ONEWEB-0374","OBJECT_ID":"2021-090X","EPOCH":"2026-06-12T02:16:44.583744","MEAN_MOTION":13.14502925,"ECCENTRICITY":0.0002246,"INCLINATION":87.8962,"RA_OF_ASC_NODE":290.7122,"ARG_OF_PERICENTER":86.7433,"MEAN_ANOMALY":273.3954,"EPHEMERIS_TYPE":0,"CLASSIFICATION_TYPE":"U","NORAD_CAT_ID":49300,"ELEMENT_SET_NO":999,"REV_AT_EPOCH":22689,"BSTAR":-8.738200000000001e-05,"MEAN_MOTION_DOT":-2e-07,"MEAN_MOTION_DDOT":0.0},{"OBJECT_NAME":"ONEWEB-0375","OBJECT_ID":"2021-090Y","EPOCH":"2026-06-12T06:02:18.487968","MEAN_MOTION":13.20771534,"ECCENTRICITY":0.0002376,"INCLINATION":87.9192,"RA_OF_ASC_NODE":275.4172,"ARG_OF_PERICENTER":89.2704,"MEAN_ANOMALY":270.8702,"EPHEMERIS_TYPE":0,"CLASSIFICATION_TYPE":"U","NORAD_CAT_ID":49301,"ELEMENT_SET_NO":999,"REV_AT_EPOCH":22987,"BSTAR":0.00017606,"MEAN_MOTION_DOT":8.5e-07,"MEAN_MOTION_DDOT":0.0},{"OBJECT_NAME":"ONEWEB-0376","OBJECT_ID":"2021-090Z","EPOCH":"2026-06-12T02:36:19.275552","MEAN_MOTION":13.19724912,"ECCENTRICITY":0.0001658,"INCLINATION":87.9171,"RA_OF_ASC_NODE":305.9779,"ARG_OF_PERICENTER":99.4071,"MEAN_ANOMALY":260.7249,"EPHEMERIS_TYPE":0,"CLASSIFICATION_TYPE":"U","NORAD_CAT_ID":49302,"ELEMENT_SET_NO":999,"REV_AT_EPOCH":22578,"BSTAR":7.0311e-06,"MEAN_MOTION_DOT":1.6e-07,"MEAN_MOTION_DDOT":0.0},{"OBJECT_NAME":"ONEWEB-0377","OBJECT_ID":"2021-090AA","EPOCH":"2026-06-12T07:32:12.189408","MEAN_MOTION":13.20772436,"ECCENTRICITY":0.000218,"INCLINATION":87.9194,"RA_OF_ASC_NODE":275.4069,"ARG_OF_PERICENTER":99.7753,"MEAN_ANOMALY":260.3627,"EPHEMERIS_TYPE":0,"CLASSIFICATION_TYPE":"U","NORAD_CAT_ID":49303,"ELEMENT_SET_NO":999,"REV_AT_EPOCH":22987,"BSTAR":5.105300000000001e-05,"MEAN_MOTION_DOT":3.4e-07,"MEAN_MOTION_DDOT":0.0},{"OBJECT_NAME":"ONEWEB-0378","OBJECT_ID":"2021-090AB","EPOCH":"2026-06-12T06:12:11.152224","MEAN_MOTION":13.20770288,"ECCENTRICITY":0.0002002,"INCLINATION":87.9187,"RA_OF_ASC_NODE":275.4231,"ARG_OF_PERICENTER":96.5674,"MEAN_ANOMALY":263.5688,"EPHEMERIS_TYPE":0,"CLASSIFICATION_TYPE":"U","NORAD_CAT_ID":49304,"ELEMENT_SET_NO":999,"REV_AT_EPOCH":22913,"BSTAR":0.00021348,"MEAN_MOTION_DOT":1e-06,"MEAN_MOTION_DDOT":0.0},{"OBJECT_NAME":"ONEWEB-0379","OBJECT_ID":"2021-090AC","EPOCH":"2026-06-11T20:41:03.296544","MEAN_MOTION":13.14502563,"ECCENTRICITY":0.0001915,"INCLINATION":87.8962,"RA_OF_ASC_NODE":290.7695,"ARG_OF_PERICENTER":96.1287,"MEAN_ANOMALY":264.0061,"EPHEMERIS_TYPE":0,"CLASSIFICATION_TYPE":"U","NORAD_CAT_ID":49305,"ELEMENT_SET_NO":999,"REV_AT_EPOCH":22686,"BSTAR":-0.00021497,"MEAN_MOTION_DOT":-6.7e-07,"MEAN_MOTION_DDOT":0.0},{"OBJECT_NAME":"ONEWEB-0380","OBJECT_ID":"2021-090AD","EPOCH":"2026-06-12T02:31:47.096544","MEAN_MOTION":13.19724731,"ECCENTRICITY":0.0002063,"INCLINATION":87.9164,"RA_OF_ASC_NODE":305.9841,"ARG_OF_PERICENTER":97.6125,"MEAN_ANOMALY":262.5243,"EPHEMERIS_TYPE":0,"CLASSIFICATION_TYPE":"U","NORAD_CAT_ID":49306,"ELEMENT_SET_NO":999,"REV_AT_EPOCH":22575,"BSTAR":-3.5029e-07,"MEAN_MOTION_DOT":1.3e-07,"MEAN_MOTION_DDOT":0.0},{"OBJECT_NAME":"ONEWEB-0381","OBJECT_ID":"2021-090AE","EPOCH":"2026-06-12T07:27:09.264096","MEAN_MOTION":13.20772126,"ECCENTRICITY":0.0002112,"INCLINATION":87.9192,"RA_OF_ASC_NODE":275.4121,"ARG_OF_PERICENTER":93.8842,"MEAN_ANOMALY":266.2533,"EPHEMERIS_TYPE":0,"CLASSIFICATION_TYPE":"U","NORAD_CAT_ID":49307,"ELEMENT_SET_NO":999,"REV_AT_EPOCH":22918,"BSTAR":3.6055e-05,"MEAN_MOTION_DOT":2.8e-07,"MEAN_MOTION_DDOT":0.0},{"OBJECT_NAME":"ONEWEB-0382","OBJECT_ID":"2021-090AF","EPOCH":"2026-06-12T07:07:44.114304","MEAN_MOTION":13.20770333,"ECCENTRICITY":0.0002044,"INCLINATION":87.9191,"RA_OF_ASC_NODE":275.4092,"ARG_OF_PERICENTER":92.1302,"MEAN_ANOMALY":268.0065,"EPHEMERIS_TYPE":0,"CLASSIFICATION_TYPE":"U","NORAD_CAT_ID":49308,"ELEMENT_SET_NO":999,"REV_AT_EPOCH":22917,"BSTAR":6.7255e-05,"MEAN_MOTION_DOT":4e-07,"MEAN_MOTION_DDOT":0.0},{"OBJECT_NAME":"ONEWEB-0383","OBJECT_ID":"2021-090AG","EPOCH":"2026-06-12T02:00:43.417440","MEAN_MOTION":13.14501672,"ECCENTRICITY":0.0001863,"INCLINATION":87.8963,"RA_OF_ASC_NODE":290.7165,"ARG_OF_PERICENTER":95.682,"MEAN_ANOMALY":264.4522,"EPHEMERIS_TYPE":0,"CLASSIFICATION_TYPE":"U","NORAD_CAT_ID":49309,"ELEMENT_SET_NO":999,"REV_AT_EPOCH":22692,"BSTAR":-0.00040976,"MEAN_MOTION_DOT":-1.39e-06,"MEAN_MOTION_DDOT":0.0},{"OBJECT_NAME":"ONEWEB-0384","OBJECT_ID":"2021-090AH","EPOCH":"2026-06-12T06:51:36.537120","MEAN_MOTION":13.20812324,"ECCENTRICITY":0.0002031,"INCLINATION":87.9194,"RA_OF_ASC_NODE":275.4551,"ARG_OF_PERICENTER":86.8219,"MEAN_ANOMALY":273.3146,"EPHEMERIS_TYPE":0,"CLASSIFICATION_TYPE":"U","NORAD_CAT_ID":49310,"ELEMENT_SET_NO":999,"REV_AT_EPOCH":22918,"BSTAR":0.00012209000000000002,"MEAN_MOTION_DOT":6.3e-07,"MEAN_MOTION_DDOT":0.0},{"OBJECT_NAME":"ONEWEB-0385","OBJECT_ID":"2021-090AJ","EPOCH":"2026-06-12T06:58:03.799200","MEAN_MOTION":13.20772831,"ECCENTRICITY":0.0002043,"INCLINATION":87.9191,"RA_OF_ASC_NODE":275.4158,"ARG_OF_PERICENTER":94.7029,"MEAN_ANOMALY":265.4338,"EPHEMERIS_TYPE":0,"CLASSIFICATION_TYPE":"U","NORAD_CAT_ID":49311,"ELEMENT_SET_NO":999,"REV_AT_EPOCH":22915,"BSTAR":9.9758e-05,"MEAN_MOTION_DOT":5.4e-07,"MEAN_MOTION_DDOT":0.0},{"OBJECT_NAME":"ONEWEB-0386","OBJECT_ID":"2021-090AK","EPOCH":"2026-06-12T07:22:18.338880","MEAN_MOTION":13.20771661,"ECCENTRICITY":0.0001967,"INCLINATION":87.9195,"RA_OF_ASC_NODE":275.4031,"ARG_OF_PERICENTER":92.4173,"MEAN_ANOMALY":267.7186,"EPHEMERIS_TYPE":0,"CLASSIFICATION_TYPE":"U","NORAD_CAT_ID":49312,"ELEMENT_SET_NO":999,"REV_AT_EPOCH":22917,"BSTAR":-6.627e-05,"MEAN_MOTION_DOT":-1.4e-07,"MEAN_MOTION_DDOT":0.0}]