ONEWEB-0371             
1 49297U 21090U   26163.11013440  .00000027  00000+0  34081-4 0  9993
2 49297  87.9171 305.9778 0001815 101.3137 258.8200 13.19724342225781
ONEWEB-0372             
1 49298U 21090V   26163.31374048  .00000062  00000+0  12128-3 0  9996
2 49298  87.9191 275.4129 0001937 101.6411 258.4940 13.20771659229199
ONEWEB-0373             
1 49299U 21090W   26163.26338222  .00000081  00000+0  16740-3 0  9990
2 49299  87.9190 275.4235 0002063 100.8809 259.2556 13.20771239230378
ONEWEB-0374             
1 49300U 21090X   26163.09496046 -.00000020  00000+0 -87382-4 0  9999
2 49300  87.8962 290.7122 0002246  86.7433 273.3954 13.14502925226898
ONEWEB-0375             
1 49301U 21090Y   26163.25160287  .00000085  00000+0  17606-3 0  9993
2 49301  87.9192 275.4172 0002376  89.2704 270.8702 13.20771534229878
ONEWEB-0376             
1 49302U 21090Z   26163.10855643  .00000016  00000+0  70311-5 0  9993
2 49302  87.9171 305.9779 0001658  99.4071 260.7249 13.19724912225786
ONEWEB-0377             
1 49303U 21090AA  26163.31402997  .00000034  00000+0  51053-4 0  9998
2 49303  87.9194 275.4069 0002180  99.7753 260.3627 13.20772436229872
ONEWEB-0378             
1 49304U 21090AB  26163.25846241  .00000100  00000+0  21348-3 0  9993
2 49304  87.9187 275.4231 0002002  96.5674 263.5688 13.20770288229130
ONEWEB-0379             
1 49305U 21090AC  26162.86184371 -.00000067  00000+0 -21497-3 0  9998
2 49305  87.8962 290.7695 0001915  96.1287 264.0061 13.14502563226863
ONEWEB-0380             
1 49306U 21090AD  26163.10540621  .00000013  00000+0 -35029-6 0  9990
2 49306  87.9164 305.9841 0002063  97.6125 262.5243 13.19724731225753
ONEWEB-0381             
1 49307U 21090AE  26163.31052389  .00000028  00000+0  36055-4 0  9996
2 49307  87.9192 275.4121 0002112  93.8842 266.2533 13.20772126229183
ONEWEB-0382             
1 49308U 21090AF  26163.29703836  .00000040  00000+0  67255-4 0  9994
2 49308  87.9191 275.4092 0002044  92.1302 268.0065 13.20770333229174
ONEWEB-0383             
1 49309U 21090AG  26163.08383585 -.00000139  00000+0 -40976-3 0  9998
2 49309  87.8963 290.7165 0001863  95.6820 264.4522 13.14501672226922
ONEWEB-0384             
1 49310U 21090AH  26163.28583955  .00000063  00000+0  12209-3 0  9997
2 49310  87.9194 275.4551 0002031  86.8219 273.3146 13.20812324229180
ONEWEB-0385             
1 49311U 21090AJ  26163.29032175  .00000054  00000+0  99758-4 0  9997
2 49311  87.9191 275.4158 0002043  94.7029 265.4338 13.20772831229151
ONEWEB-0386             
1 49312U 21090AK  26163.30715670 -.00000014  00000+0 -66270-4 0  9999
2 49312  87.9195 275.4031 0001967  92.4173 267.7186 13.20771661229173
